OPTICUBE 04             
1 41851U 16067D   24256.88771190  .00013117  00000+0  95419-3 0  9992
2 41851  98.0849  65.5980 0018265 121.4260 238.8753 15.03817833428414
AEROCUBE 8D             
1 41852U 16067E   24256.90222499  .00026258  00000+0  16180-2 0  9996
2 41852  98.1136  71.0489 0004899 167.1858 192.9495 15.09936745428625
AEROCUBE 8C             
1 41853U 16067F   24256.45400754  .00016604  00000+0  10268-2 0  9994
2 41853  98.0950  68.9394 0008031 104.8294 255.3824 15.09896356428547
PROMETHEUS 2-1          
1 41854U 16067G   24256.51207030  .00082549  00000+0  35912-2 0  9998
2 41854  98.1025  77.9309 0011349 118.3313 241.9067 15.21850054428994
PROMETHEUS 2-3          
1 41855U 16067H   24256.44504600  .00041544  00000+0  18256-2 0  9996
2 41855  98.0957  77.2629 0009667 128.5339 231.6763 15.21742338428980
CORVUS BC2              
1 42846U 17042X   24256.94898044  .00013821  00000+0  11455-2 0  9995
2 42846  97.3768  77.2390 0008406 116.7223 243.4862 14.98912289390581
CORVUS BC1              
1 42847U 17042Y   24256.76746457  .00021593  00000+0  17780-2 0  9998
2 42847  97.3744  77.4797 0008406 122.3604 237.8435 14.99066131390574
MIRATA                  
1 43015U 17073C   24256.73380381  .00123124  00000+0  50240-2 0  9998
2 43015  97.5799 140.7114 0151956 321.4136  37.6310 15.13956089369540
MAKERSAT 0              
1 43016U 17073D   24256.63019987  .00068691  00000+0  36291-2 0  9996
2 43016  97.5586 133.2931 0183190 346.8095  12.8373 15.01883503369012
GOMX-4B                 
1 43196U 18015E   24256.47101256  .00330267  41656-4  11954-2 0  9992
2 43196  97.5993  78.0037 0006126 309.8238  50.2493 15.88543079369247
SIRION PATHFINDER-2     
1 43759U 18099B   24256.74808413  .00027850  00000+0  19912-2 0  9994
2 43759  97.5220 310.4712 0010286 359.5007   0.6208 15.04377331315660
CORVUS BC4              
1 43767U 18099K   24256.62541663  .00025994  00000+0  19025-2 0  9993
2 43767  97.5046 307.2866 0010700  51.7229 308.4958 15.03507788315523
MOVE-II                 
1 43780U 18099Y   24256.74576663  .00142502  00000+0  61329-2 0  9998
2 43780  97.5113 319.1969 0005266  42.8212 317.3433 15.21973993316212
SPACEBEE-7              
1 43816U 18099BL  24256.75012415  .00082847  00000+0  43018-2 0  9999
2 43816  97.5394 319.5597 0008172 349.7082  10.3982 15.15726072315650
SPACEBEE-6              
1 43818U 18099BN  24256.66781679  .00249020  00000+0  73576-2 0  9996
2 43818  97.5306 326.6385 0005835 326.9262  33.1615 15.33896015316268
SHIELDS 1               
1 43850U 18104B   24256.94637503  .00046109  00000+0  10917-2 0  9999
2 43850  85.0209 223.3871 0014007 100.8496 259.4334 15.41487129319669
SONATE                  
1 44400U 19038Q   24256.78988099  .00109376  00000+0  26976-2 0  9997
2 44400  97.7161 255.1433 0016835 144.9650 215.2706 15.39979331287538
LUCKY-7                 
1 44406U 19038W   24256.95713063  .00160083  00000+0  22230-2 0  9990
2 44406  97.7024 261.0250 0014679 127.3022 232.9572 15.56346271287950
DUCHIFAT-3              
1 44854U 19089C   24256.65637411  .00083046  00000+0  36325-2 0  9995
2 44854  36.9541 236.4218 0005663 145.9511 214.1601 15.20908052261575
M2 PATHFINDER           
1 45727U 20037E   24256.91341944  .00013550  00000+0  11422-2 0  9996
2 45727  97.7825  72.9694 0010904 181.5857 178.5332 14.98252997229076
NETSAT-4                
1 46504U 20068U   24256.83543659  .00049913  00000+0  24417-2 0  9992
2 46504  97.8127 216.5329 0012065  69.8492 290.4038 15.17964093217455
NETSAT-3                
1 46505U 20068V   24256.78857130  .00050962  00000+0  25341-2 0  9992
2 46505  97.8106 215.8800 0011460  77.2908 282.9604 15.17392376217434
NETSAT-1                
1 46506U 20068W   24256.87996888  .00028067  00000+0  14916-2 0  9994
2 46506  97.8128 215.2162 0010591  85.0983 275.1457 15.15206363217391
NETSAT-2                
1 46507U 20068X   24256.78944629  .00052097  00000+0  25498-2 0  9998
2 46507  97.8110 216.0911 0009753  89.4135 270.8215 15.17955954217392
WILDTRACKCUBE-SIMBA     
1 47941U 21022K   24256.87955919  .00050085  00000+0  19698-2 0  9996
2 47941  97.4466 153.0151 0013932 185.0898 175.0201 15.25395944191819
GRBALPHA                
1 47959U 21022AD  24256.95759293  .00076846  00000+0  24760-2 0  9990
2 47959  97.4464 155.6265 0013011 170.9651 189.1827 15.31811681190815
BCCSAT-1                
1 48041U 21022AK  24256.67509636  .01712829  16212-2  45370-2 0  9990
2 48041  97.4353 168.4869 0013235 137.9223 222.3072 15.94899994191593
BEESAT-8                
1 48085U 21022AP  24256.71310795  .00168042  00000+0  40194-2 0  9994
2 48085  97.4674 160.0962 0012164 152.9113 207.2771 15.40745557191318
LEDSAT                  
1 49069U 21073D   24256.74481528  .00084250  00000+0  28923-2 0  9993
2 49069  97.4287 327.5075 0016429 335.5079  24.5379 15.29677766169811
ROBUSTA-1F (MTCUBE 2)   
1 53109U 22080E   24256.71769477 -.00000003  00000+0  00000+0 0  9999
2 53109  70.1280 161.6930 0008172  69.1662 290.9872  6.42583996 50781
SITRO-AIS 5 (KATYS)     
1 57176U 23091L   24256.92677457  .00029814  00000+0  17863-2 0  9997
2 57176  97.6041 308.4382 0017464 176.9945 183.1392 15.10805689 66738
SITRO-AIS 6 (CHIRKIN)   
1 57192U 23091AC  24256.90876100  .00028959  00000+0  17338-2 0  9995
2 57192  97.6035 308.4499 0017195 177.4191 182.7131 15.10842647 66739
SITRO-AIS 8 (ANOKHIN)   
1 57193U 23091AD  24256.92038222  .00030267  00000+0  17875-2 0  9994
2 57193  97.6035 308.5784 0016948 177.9150 182.2153 15.11332872 66748
SITRO-AIS 7 (FARTUSHNIY)
1 57194U 23091AE  24256.91682333  .00027831  00000+0  16697-2 0  9996
2 57194  97.6033 308.4314 0017106 177.8152 182.3156 15.10778209 66733
SITRO-AIS 10 (BURDAEV)  
1 57199U 23091AK  24256.91319052  .00033835  00000+0  18900-2 0  9996
2 57199  97.6049 309.7444 0012525 164.8474 195.3135 15.13367220 66816
SITRO-AIS 9 (SHCHUKIN)  
1 57201U 23091AM  24256.91279527  .00033541  00000+0  18754-2 0  9993
2 57201  97.6045 309.7164 0012485 164.7558 195.4052 15.13334704 66812
SITRO-AIS 12 (SMIRENNIY)
1 57204U 23091AQ  24256.93020426  .00034106  00000+0  18960-2 0  9997
2 57204  97.6056 309.9006 0012589 158.6487 201.5272 15.13537018 66829
SITRO-AIS 11 (SHEFFER)  
1 57208U 23091AU  24256.91027748  .00034610  00000+0  19175-2 0  9992
2 57208  97.6051 309.9139 0012317 159.4299 200.7430 15.13657035 66823
ROBUSTA-1E (ENSO)       
1 58470U 23185J   24256.91906834  .00058968  00000+0  21489-2 0  9993
2 58470  97.4176 322.9204 0010325 331.6856  28.3821 15.27920568 43517
SITRO-AIS 29            
1 59052U 24039B   24256.83550603  .00110885  00000+0  32765-2 0  9995
2 59052  97.3979 218.4941 0011208 257.8492 102.1496 15.34441897 30007
SITRO-AIS 30            
1 59053U 24039C   24256.90634972  .00080644  00000+0  24089-2 0  9995
2 59053  97.3980 218.5462 0011455 259.1812 100.8142 15.34228764 30003
SITRO-AIS 31            
1 59054U 24039D   24256.95527929  .00081581  00000+0  24187-2 0  9994
2 59054  97.3978 218.6349 0011238 258.5519 101.4462 15.34464031 30036
SITRO-AIS 33            
1 59055U 24039E   24256.93986036  .00082946  00000+0  24511-2 0  9998
2 59055  97.3980 218.6639 0010949 259.6098 100.3911 15.34564947 30027
SITRO-AIS 35            
1 59056U 24039F   24256.93509028  .00080101  00000+0  23665-2 0  9991
2 59056  97.3979 218.6663 0010756 259.8111 100.1919 15.34587027 30027
SITRO-AIS 32            
1 59057U 24039G   24256.94934899  .00078202  00000+0  23235-2 0  9993
2 59057  97.3982 218.6501 0010940 259.9010 100.0999 15.34414523 30024
SITRO-AIS 34            
1 59058U 24039H   24256.94069375  .00083911  00000+0  24765-2 0  9994
2 59058  97.3979 218.6645 0010816 259.5761 100.4264 15.34601887 30021
SITRO-AIS 36            
1 59059U 24039J   24256.92605089  .00080776  00000+0  23767-2 0  9998
2 59059  97.3980 218.6791 0010671 259.4748 100.5293 15.34714040 30028
SITRO-AIS 49            
1 59060U 24039K   24256.93030599  .00081195  00000+0  23990-2 0  9993
2 59060  97.3980 218.6735 0010740 258.8251 101.1785 15.34579923 30029
SITRO-AIS 50            
1 59061U 24039L   24256.91060750  .00082954  00000+0  24289-2 0  9990
2 59061  97.3980 218.6978 0010479 258.3249 101.6818 15.34860306 30020
SITRO-AIS 51            
1 59062U 24039M   24256.91015315  .00081659  00000+0  23897-2 0  9993
2 59062  97.3979 218.6975 0010466 258.6631 101.3437 15.34882947 30029
SITRO-AIS 52            
1 59063U 24039N   24256.89804134  .00082879  00000+0  24150-2 0  9994
2 59063  97.3981 218.7166 0010279 258.8534 101.1553 15.35015031 30022
SITRO-AIS 25            
1 59066U 24039R   24256.90051202  .00021397  00000+0  19707-2 0  9999
2 59066  95.3956 156.7996 0169699  41.7909 319.6127 14.84307718 29113
SITRO-AIS 26            
1 59067U 24039S   24256.90258231  .00022144  00000+0  20434-2 0  9991
2 59067  95.3955 156.7968 0169722  41.8347 319.5701 14.84230173 29113
SITRO-AIS 27            
1 59068U 24039T   24256.88264537  .00022071  00000+0  20280-2 0  9993
2 59068  95.3958 156.8199 0169274  41.6722 319.7252 14.84440506 29117
SITRO-AIS 28            
1 59071U 24039U   24256.94495003  .00022348  00000+0  20515-2 0  9996
2 59071  95.3959 156.8725 0169087  41.4262 319.9635 14.84494588 29123
GRBBETA                 
1 60237U 24128C   24256.57676526  .00019190  00000+0  16301-2 0  9990
2 60237  61.9945 297.7919 0016933 335.0712  24.9557 14.97856692  9683
OOV-CUBE (TUBSAT-30)    
1 60240U 24128F   24256.53801127  .00013616  00000+0  11881-2 0  9992
2 60240  61.9985 298.1833 0014920 325.7052  34.3072 14.97031591  9688
ROBUSTA-3A (MEDITERRAN*)
1 60243U 24128J   24256.48555105  .00029517  00000+0  25399-2 0  9997
2 60243  61.9920 298.4267 0016448 314.9298  45.0454 14.97164868  9679
